{
"type": "FeatureCollection",
"name": "beijing_network",
"crs": { "type": "name", "properties": { "name": "urn:ogc:def:crs:OGC:1.3:CRS84" } },
"features": [
{ "type": "Feature", "properties": { "link_id": 0, "from_node": 0, "to_node": 10, "length": 4757.142857143037, "dir": 0 }, "geometry": { "type": "LineString", "coordinates": [ [ 116.25, 39.88 ], [ 116.292857142857144, 39.88 ] ] } },
{ "type": "Feature", "properties": { "link_id": 1, "from_node": 10, "to_node": 0, "length": 4757.142857143037, "dir": 0 }, "geometry": { "type": "LineString", "coordinates": [ [ 116.292857142857144, 39.88 ], [ 116.25, 39.88 ] ] } },
{ "type": "Feature", "properties": { "link_id": 2, "from_node": 1, "to_node": 11, "length": 4757.142857143037, "dir": 0 }, "geometry": { "type": "LineString", "coordinates": [ [ 116.25, 39.895555555555561 ], [ 116.292857142857144, 39.895555555555561 ] ] } },
{ "type": "Feature", "properties": { "link_id": 3, "from_node": 11, "to_node": 1, "length": 4757.142857143037, "dir": 0 }, "geometry": { "type": "LineString", "coordinates": [ [ 116.292857142857144, 39.895555555555561 ], [ 116.25, 39.895555555555561 ] ] } },
{ "type": "Feature", "properties": { "link_id": 4, "from_node": 2, "to_node": 12, "length": 4757.142857143037, "dir": 0 }, "geometry": { "type": "LineString", "coordinates": [ [ 116.25, 39.911111111111111 ], [ 116.292857142857144, 39.911111111111111 ] ] } },
{ "type": "Feature", "properties": { "link_id": 5, "from_node": 12, "to_node": 2, "length": 4757.142857143037, "dir": 0 }, "geometry": { "type": "LineString", "coordinates": [ [ 116.292857142857144, 39.911111111111111 ], [ 116.25, 39.911111111111111 ] ] } },
{ "type": "Feature", "properties": { "link_id": 6, "from_node": 3, "to_node": 13, "length": 4757.142857143037, "dir": 0 }, "geometry": { "type": "LineString", "coordinates": [ [ 116.25, 39.926666666666669 ], [ 116.292857142857144, 39.926666666666669 ] ] } },
{ "type": "Feature", "properties": { "link_id": 7, "from_node": 13, "to_node": 3, "length": 4757.142857143037, "dir": 0 }, "geometry": { "type": "LineString", "coordinates": [ [ 116.292857142857144, 39.926666666666669 ], [ 116.25, 39.926666666666669 ] ] } },
{ "type": "Feature", "properties": { "link_id": 8, "from_node": 4, "to_node": 14, "length": 4757.142857143037, "dir": 0 }, "geometry": { "type": "LineString", "coordinates": [ [ 116.25, 39.942222222222227 ], [ 116.292857142857144, 39.942222222222227 ] ] } },
{ "type": "Feature", "properties": { "link_id": 9, "from_node": 14, "to_node": 4, "length": 4757.142857143037, "dir": 0 }, "geometry": { "type": "LineString", "coordinates": [ [ 116.292857142857144, 39.942222222222227 ], [ 116.25, 39.942222222222227 ] ] } },
{ "type": "Feature", "properties": { "link_id": 10, "from_node": 5, "to_node": 15, "length": 4757.142857143037, "dir": 0 }, "geometry": { "type": "LineString", "coordinates": [ [ 116.25, 39.957777777777778 ], [ 116.292857142857144, 39.957777777777778 ] ] } },
{ "type": "Feature", "properties": { "link_id": 11, "from_node": 15, "to_node": 5, "length": 4757.142857143037, "dir": 0 }, "geometry": { "type": "LineString", "coordinates": [ [ 116.292857142857144, 39.957777777777778 ], [ 116.25, 39.957777777777778 ] ] } },
{ "type": "Feature", "properties": { "link_id": 12, "from_node": 6, "to_node": 16, "length": 4757.142857143037, "dir": 0 }, "geometry": { "type": "LineString", "coordinates": [ [ 116.25, 39.973333333333336 ], [ 116.292857142857144, 39.973333333333336 ] ] } },
{ "type": "Feature", "properties": { "link_id": 13, "from_node": 16, "to_node": 6, "length": 4757.142857143037, "dir": 0 }, "geometry": { "type": "LineString", "coordinates": [ [ 116.292857142857144, 39.973333333333336 ], [ 116.25, 39.973333333333336 ] ] } },
{ "type": "Feature", "properties": { "link_id": 14, "from_node": 7, "to_node": 17, "length": 4757.142857143037, "dir": 0 }, "geometry": { "type": "LineString", "coordinates": [ [ 116.25, 39.988888888888894 ], [ 116.292857142857144, 39.988888888888894 ] ] } },
{ "type": "Feature", "properties": { "link_id": 15, "from_node": 17, "to_node": 7, "length": 4757.142857143037, "dir": 0 }, "geometry": { "type": "LineString", "coordinates": [ [ 116.292857142857144, 39.988888888888894 ], [ 116.25, 39.988888888888894 ] ] } },
{ "type": "Feature", "properties": { "link_id": 16, "from_node": 8, "to_node": 18, "length": 4757.142857143037, "dir": 0 }, "geometry": { "type": "LineString", "coordinates": [ [ 116.25, 40.004444444444445 ], [ 116.292857142857144, 40.004444444444445 ] ] } },
{ "type": "Feature", "properties": { "link_id": 17, "from_node": 18, "to_node": 8, "length": 4757.142857143037, "dir": 0 }, "geometry": { "type": "LineString", "coordinates": [ [ 116.292857142857144, 40.004444444444445 ], [ 116.25, 40.004444444444445 ] ] } },
{ "type": "Feature", "properties": { "link_id": 18, "from_node": 9, "to_node": 19, "length": 4757.142857143037, "dir": 0 }, "geometry": { "type": "LineString", "coordinates": [ [ 116.25, 40.02 ], [ 116.292857142857144, 40.02 ] ] } },
{ "type": "Feature", "properties": { "link_id": 19, "from_node": 19, "to_node": 9, "length": 4757.142857143037, "dir": 0 }, "geometry": { "type": "LineString", "coordinates": [ [ 116.292857142857144, 40.02 ], [ 116.25, 40.02 ] ] } },
{ "type": "Feature", "properties": { "link_id": 20, "from_node": 10, "to_node": 20, "length": 4757.142857143037, "dir": 0 }, "geometry": { "type": "LineString", "coordinates": [ [ 116.292857142857144, 39.88 ], [ 116.335714285714289, 39.88 ] ] } },
{ "type": "Feature", "properties": { "link_id": 21, "from_node": 20, "to_node": 10, "length": 4757.142857143037, "dir": 0 }, "geometry": { "type": "LineString", "coordinates": [ [ 116.335714285714289, 39.88 ], [ 116.292857142857144, 39.88 ] ] } },
{ "type": "Feature", "properties": { "link_id": 22, "from_node": 11, "to_node": 21, "length": 4757.142857143037, "dir": 0 }, "geometry": { "type": "LineString", "coordinates": [ [ 116.292857142857144, 39.895555555555561 ], [ 116.335714285714289, 39.895555555555561 ] ] } },
{ "type": "Feature", "properties": { "link_id": 23, "from_node": 21, "to_node": 11, "length": 4757.142857143037, "dir": 0 }, "geometry": { "type": "LineString", "coordinates": [ [ 116.335714285714289, 39.895555555555561 ], [ 116.292857142857144, 39.895555555555561 ] ] } },
{ "type": "Feature", "properties": { "link_id": 24, "from_node": 12, "to_node": 22, "length": 4757.142857143037, "dir": 0 }, "geometry": { "type": "LineString", "coordinates": [ [ 116.292857142857144, 39.911111111111111 ], [ 116.335714285714289, 39.911111111111111 ] ] } },
{ "type": "Feature", "properties": { "link_id": 25, "from_node": 22, "to_node": 12, "length": 4757.142857143037, "dir": 0 }, "geometry": { "type": "LineString", "coordinates": [ [ 116.335714285714289, 39.911111111111111 ], [ 116.292857142857144, 39.911111111111111 ] ] } },
{ "type": "Feature", "properties": { "link_id": 26, "from_node": 13, "to_node": 23, "length": 4757.142857143037, "dir": 0 }, "geometry": { "type": "LineString", "coordinates": [ [ 116.292857142857144, 39.926666666666669 ], [ 116.335714285714289, 39.926666666666669 ] ] } },
{ "type": "Feature", "properties": { "link_id": 27, "from_node": 23, "to_node": 13, "length": 4757.142857143037, "dir": 0 }, "geometry": { "type": "LineString", "coordinates": [ [ 116.335714285714289, 39.926666666666669 ], [ 116.292857142857144, 39.926666666666669 ] ] } },
{ "type": "Feature", "properties": { "link_id": 28, "from_node": 14, "to_node": 24, "length": 4757.142857143037, "dir": 0 }, "geometry": { "type": "LineString", "coordinates": [ [ 116.292857142857144, 39.942222222222227 ], [ 116.335714285714289, 39.942222222222227 ] ] } },
{ "type": "Feature", "properties": { "link_id": 29, "from_node": 24, "to_node": 14, "length": 4757.142857143037, "dir": 0 }, "geometry": { "type": "LineString", "coordinates": [ [ 116.335714285714289, 39.942222222222227 ], [ 116.292857142857144, 39.942222222222227 ] ] } },
{ "type": "Feature", "properties": { "link_id": 30, "from_node": 15, "to_node": 25, "length": 4757.142857143037, "dir": 0 }, "geometry": { "type": "LineString", "coordinates": [ [ 116.292857142857144, 39.957777777777778 ], [ 116.335714285714289, 39.957777777777778 ] ] } },
{ "type": "Feature", "properties": { "link_id": 31, "from_node": 25, "to_node": 15, "length": 4757.142857143037, "dir": 0 }, "geometry": { "type": "LineString", "coordinates": [ [ 116.335714285714289, 39.957777777777778 ], [ 116.292857142857144, 39.957777777777778 ] ] } },
{ "type": "Feature", "properties": { "link_id": 32, "from_node": 16, "to_node": 26, "length": 4757.142857143037, "dir": 0 }, "geometry": { "type": "LineString", "coordinates": [ [ 116.292857142857144, 39.973333333333336 ], [ 116.335714285714289, 39.973333333333336 ] ] } },
{ "type": "Feature", "properties": { "link_id": 33, "from_node": 26, "to_node": 16, "length": 4757.142857143037, "dir": 0 }, "geometry": { "type": "LineString", "coordinates": [ [ 116.335714285714289, 39.973333333333336 ], [ 116.292857142857144, 39.973333333333336 ] ] } },
{ "type": "Feature", "properties": { "link_id": 34, "from_node": 17, "to_node": 27, "length": 4757.142857143037, "dir": 0 }, "geometry": { "type": "LineString", "coordinates": [ [ 116.292857142857144, 39.988888888888894 ], [ 116.335714285714289, 39.988888888888894 ] ] } },
{ "type": "Feature", "properties": { "link_id": 35, "from_node": 27, "to_node": 17, "length": 4757.142857143037, "dir": 0 }, "geometry": { "type": "LineString", "coordinates": [ [ 116.335714285714289, 39.988888888888894 ], [ 116.292857142857144, 39.988888888888894 ] ] } },
{ "type": "Feature", "properties": { "link_id": 36, "from_node": 18, "to_node": 28, "length": 4757.142857143037, "dir": 0 }, "geometry": { "type": "LineString", "coordinates": [ [ 116.292857142857144, 40.004444444444445 ], [ 116.335714285714289, 40.004444444444445 ] ] } },
{ "type": "Feature", "properties": { "link_id": 37, "from_node": 28, "to_node": 18, "length": 4757.142857143037, "dir": 0 }, "geometry": { "type": "LineString", "coordinates": [ [ 116.335714285714289, 40.004444444444445 ], [ 116.292857142857144, 40.004444444444445 ] ] } },
{ "type": "Feature", "properties": { "link_id": 38, "from_node": 19, "to_node": 29, "length": 4757.142857143037, "dir": 0 }, "geometry": { "type": "LineString", "coordinates": [ [ 116.292857142857144, 40.02 ], [ 116.335714285714289, 40.02 ] ] } },
{ "type": "Feature", "properties": { "link_id": 39, "from_node": 29, "to_node": 19, "length": 4757.142857143037, "dir": 0 }, "geometry": { "type": "LineString", "coordinates": [ [ 116.335714285714289, 40.02 ], [ 116.292857142857144, 40.02 ] ] } },
{ "type": "Feature", "properties": { "link_id": 40, "from_node": 20, "to_node": 30, "length": 4757.142857143037, "dir": 0 }, "geometry": { "type": "LineString", "coordinates": [ [ 116.335714285714289, 39.88 ], [ 116.378571428571433, 39.88 ] ] } },
{ "type": "Feature", "properties": { "link_id": 41, "from_node": 30, "to_node": 20, "length": 4757.142857143037, "dir": 0 }, "geometry": { "type": "LineString", "coordinates": [ [ 116.378571428571433, 39.88 ], [ 116.335714285714289, 39.88 ] ] } },
{ "type": "Feature", "properties": { "link_id": 42, "from_node": 21, "to_node": 31, "length": 4757.142857143037, "dir": 0 }, "geometry": { "type": "LineString", "coordinates": [ [ 116.335714285714289, 39.895555555555561 ], [ 116.378571428571433, 39.895555555555561 ] ] } },
{ "type": "Feature", "properties": { "link_id": 43, "from_node": 31, "to_node": 21, "length": 4757.142857143037, "dir": 0 }, "geometry": { "type": "LineString", "coordinates": [ [ 116.378571428571433, 39.895555555555561 ], [ 116.335714285714289, 39.895555555555561 ] ] } },
{ "type": "Feature", "properties": { "link_id": 44, "from_node": 22, "to_node": 32, "length": 4757.142857143037, "dir": 0 }, "geometry": { "type": "LineString", "coordinates": [ [ 116.335714285714289, 39.911111111111111 ], [ 116.378571428571433, 39.911111111111111 ] ] } },
{ "type": "Feature", "properties": { "link_id": 45, "from_node": 32, "to_node": 22, "length": 4757.142857143037, "dir": 0 }, "geometry": { "type": "LineString", "coordinates": [ [ 116.378571428571433, 39.911111111111111 ], [ 116.335714285714289, 39.911111111111111 ] ] } },
{ "type": "Feature", "properties": { "link_id": 46, "from_node": 23, "to_node": 33, "length": 4757.142857143037, "dir": 0 }, "geometry": { "type": "LineString", "coordinates": [ [ 116.335714285714289, 39.926666666666669 ], [ 116.378571428571433, 39.926666666666669 ] ] } },
{ "type": "Feature", "properties": { "link_id": 47, "from_node": 33, "to_node": 23, "length": 4757.142857143037, "dir": 0 }, "geometry": { "type": "LineString", "coordinates": [ [ 116.378571428571433, 39.926666666666669 ], [ 116.335714285714289, 39.926666666666669 ] ] } },
{ "type": "Feature", "properties": { "link_id": 48, "from_node": 24, "to_node": 34, "length": 4757.142857143037, "dir": 0 }, "geometry": { "type": "LineString", "coordinates": [ [ 116.335714285714289, 39.942222222222227 ], [ 116.378571428571433, 39.942222222222227 ] ] } },
{ "type": "Feature", "properties": { "link_id": 49, "from_node": 34, "to_node": 24, "length": 4757.142857143037, "dir": 0 }, "geometry": { "type": "LineString", "coordinates": [ [ 116.378571428571433, 39.942222222222227 ], [ 116.335714285714289, 39.942222222222227 ] ] } },
{ "type": "Feature", "properties": { "link_id": 50, "from_node": 25, "to_node": 35, "length": 4757.142857143037, "dir": 0 }, "geometry": { "type": "LineString", "coordinates": [ [ 116.335714285714289, 39.957777777777778 ], [ 116.378571428571433, 39.957777777777778 ] ] } },
{ "type": "Feature", "properties": { "link_id": 51, "from_node": 35, "to_node": 25, "length": 4757.142857143037, "dir": 0 }, "geometry": { "type": "LineString", "coordinates": [ [ 116.378571428571433, 39.957777777777778 ], [ 116.335714285714289, 39.957777777777778 ] ] } },
{ "type": "Feature", "properties": { "link_id": 52, "from_node": 26, "to_node": 36, "length": 4757.142857143037, "dir": 0 }, "geometry": { "type": "LineString", "coordinates": [ [ 116.335714285714289, 39.973333333333336 ], [ 116.378571428571433, 39.973333333333336 ] ] } },
{ "type": "Feature", "properties": { "link_id": 53, "from_node": 36, "to_node": 26, "length": 4757.142857143037, "dir": 0 }, "geometry": { "type": "LineString", "coordinates": [ [ 116.378571428571433, 39.973333333333336 ], [ 116.335714285714289, 39.973333333333336 ] ] } },
{ "type": "Feature", "properties": { "link_id": 54, "from_node": 27, "to_node": 37, "length": 4757.142857143037, "dir": 0 }, "geometry": { "type": "LineString", "coordinates": [ [ 116.335714285714289, 39.988888888888894 ], [ 116.378571428571433, 39.988888888888894 ] ] } },
{ "type": "Feature", "properties": { "link_id": 55, "from_node": 37, "to_node": 27, "length": 4757.142857143037, "dir": 0 }, "geometry": { "type": "LineString", "coordinates": [ [ 116.378571428571433, 39.988888888888894 ], [ 116.335714285714289, 39.988888888888894 ] ] } },
{ "type": "Feature", "properties": { "link_id": 56, "from_node": 28, "to_node": 38, "length": 4757.142857143037, "dir": 0 }, "geometry": { "type": "LineString", "coordinates": [ [ 116.335714285714289, 40.004444444444445 ], [ 116.378571428571433, 40.004444444444445 ] ] } },
{ "type": "Feature", "properties": { "link_id": 57, "from_node": 38, "to_node": 28, "length": 4757.142857143037, "dir": 0 }, "geometry": { "type": "LineString", "coordinates": [ [ 116.378571428571433, 40.004444444444445 ], [ 116.335714285714289, 40.004444444444445 ] ] } },
{ "type": "Feature", "properties": { "link_id": 58, "from_node": 29, "to_node": 39, "length": 4757.142857143037, "dir": 0 }, "geometry": { "type": "LineString", "coordinates": [ [ 116.335714285714289, 40.02 ], [ 116.378571428571433, 40.02 ] ] } },
{ "type": "Feature", "properties": { "link_id": 59, "from_node": 39, "to_node": 29, "length": 4757.142857143037, "dir": 0 }, "geometry": { "type": "LineString", "coordinates": [ [ 116.378571428571433, 40.02 ], [ 116.335714285714289, 40.02 ] ] } },
{ "type": "Feature", "properties": { "link_id": 60, "from_node": 30, "to_node": 40, "length": 4757.1428571414599, "dir": 0 }, "geometry": { "type": "LineString", "coordinates": [ [ 116.378571428571433, 39.88 ], [ 116.421428571428564, 39.88 ] ] } },
{ "type": "Feature", "properties": { "link_id": 61, "from_node": 40, "to_node": 30, "length": 4757.1428571414599, "dir": 0 }, "geometry": { "type": "LineString", "coordinates": [ [ 116.421428571428564, 39.88 ], [ 116.378571428571433, 39.88 ] ] } },
{ "type": "Feature", "properties": { "link_id": 62, "from_node": 31, "to_node": 41, "length": 4757.1428571414599, "dir": 0 }, "geometry": { "type": "LineString", "coordinates": [ [ 116.378571428571433, 39.895555555555561 ], [ 116.421428571428564, 39.895555555555561 ] ] } },
{ "type": "Feature", "properties": { "link_id": 63, "from_node": 41, "to_node": 31, "length": 4757.1428571414599, "dir": 0 }, "geometry": { "type": "LineString", "coordinates": [ [ 116.421428571428564, 39.895555555555561 ], [ 116.378571428571433, 39.895555555555561 ] ] } },
{ "type": "Feature", "properties": { "link_id": 64, "from_node": 32, "to_node": 42, "length": 4757.1428571414599, "dir": 0 }, "geometry": { "type": "LineString", "coordinates": [ [ 116.378571428571433, 39.911111111111111 ], [ 116.421428571428564, 39.911111111111111 ] ] } },
{ "type": "Feature", "properties": { "link_id": 65, "from_node": 42, "to_node": 32, "length": 4757.1428571414599, "dir": 0 }, "geometry": { "type": "LineString", "coordinates": [ [ 116.421428571428564, 39.911111111111111 ], [ 116.378571428571433, 39.911111111111111 ] ] } },
{ "type": "Feature", "properties": { "link_id": 66, "from_node": 33, "to_node": 43, "length": 4757.1428571414599, "dir": 0 }, "geometry": { "type": "LineString", "coordinates": [ [ 116.378571428571433, 39.926666666666669 ], [ 116.421428571428564, 39.926666666666669 ] ] } },
{ "type": "Feature", "properties": { "link_id": 67, "from_node": 43, "to_node": 33, "length": 4757.1428571414599, "dir": 0 }, "geometry": { "type": "LineString", "coordinates": [ [ 116.421428571428564, 39.926666666666669 ], [ 116.378571428571433, 39.926666666666669 ] ] } },
{ "type": "Feature", "properties": { "link_id": 68, "from_node": 34, "to_node": 44, "length": 4757.1428571414599, "dir": 0 }, "geometry": { "type": "LineString", "coordinates": [ [ 116.378571428571433, 39.942222222222227 ], [ 116.421428571428564, 39.942222222222227 ] ] } },
{ "type": "Feature", "properties": { "link_id": 69, "from_node": 44, "to_node": 34, "length": 4757.1428571414599, "dir": 0 }, "geometry": { "type": "LineString", "coordinates": [ [ 116.421428571428564, 39.942222222222227 ], [ 116.378571428571433, 39.942222222222227 ] ] } },
{ "type": "Feature", "properties": { "link_id": 70, "from_node": 35, "to_node": 45, "length": 4757.1428571414599, "dir": 0 }, "geometry": { "type": "LineString", "coordinates": [ [ 116.378571428571433, 39.957777777777778 ], [ 116.421428571428564, 39.957777777777778 ] ] } },
{ "type": "Feature", "properties": { "link_id": 71, "from_node": 45, "to_node": 35, "length": 4757.1428571414599, "dir": 0 }, "geometry": { "type": "LineString", "coordinates": [ [ 116.421428571428564, 39.957777777777778 ], [ 116.378571428571433, 39.957777777777778 ] ] } },
{ "type": "Feature", "properties": { "link_id": 72, "from_node": 36, "to_node": 46, "length": 4757.1428571414599, "dir": 0 }, "geometry": { "type": "LineString", "coordinates": [ [ 116.378571428571433, 39.973333333333336 ], [ 116.421428571428564, 39.973333333333336 ] ] } },
{ "type": "Feature", "properties": { "link_id": 73, "from_node": 46, "to_node": 36, "length": 4757.1428571414599, "dir": 0 }, "geometry": { "type": "LineString", "coordinates": [ [ 116.421428571428564, 39.973333333333336 ], [ 116.378571428571433, 39.973333333333336 ] ] } },
{ "type": "Feature", "properties": { "link_id": 74, "from_node": 37, "to_node": 47, "length": 4757.1428571414599, "dir": 0 }, "geometry": { "type": "LineString", "coordinates": [ [ 116.378571428571433, 39.988888888888894 ], [ 116.421428571428564, 39.988888888888894 ] ] } },
{ "type": "Feature", "properties": { "link_id": 75, "from_node": 47, "to_node": 37, "length": 4757.1428571414599, "dir": 0 }, "geometry": { "type": "LineString", "coordinates": [ [ 116.421428571428564, 39.988888888888894 ], [ 116.378571428571433, 39.988888888888894 ] ] } },
{ "type": "Feature", "properties": { "link_id": 76, "from_node": 38, "to_node": 48, "length": 4757.1428571414599, "dir": 0 }, "geometry": { "type": "LineString", "coordinates": [ [ 116.378571428571433, 40.004444444444445 ], [ 116.421428571428564, 40.004444444444445 ] ] } },
{ "type": "Feature", "properties": { "link_id": 77, "from_node": 48, "to_node": 38, "length": 4757.1428571414599, "dir": 0 }, "geometry": { "type": "LineString", "coordinates": [ [ 116.421428571428564, 40.004444444444445 ], [ 116.378571428571433, 40.004444444444445 ] ] } },
{ "type": "Feature", "properties": { "link_id": 78, "from_node": 39, "to_node": 49, "length": 4757.1428571414599, "dir": 0 }, "geometry": { "type": "LineString", "coordinates": [ [ 116.378571428571433, 40.02 ], [ 116.421428571428564, 40.02 ] ] } },
{ "type": "Feature", "properties": { "link_id": 79, "from_node": 49, "to_node": 39, "length": 4757.1428571414599, "dir": 0 }, "geometry": { "type": "LineString", "coordinates": [ [ 116.421428571428564, 40.02 ], [ 116.378571428571433, 40.02 ] ] } },
{ "type": "Feature", "properties": { "link_id": 80, "from_node": 40, "to_node": 50, "length": 4757.142857143037, "dir": 0 }, "geometry": { "type": "LineString", "coordinates": [ [ 116.421428571428564, 39.88 ], [ 116.464285714285708, 39.88 ] ] } },
{ "type": "Feature", "properties": { "link_id": 81, "from_node": 50, "to_node": 40, "length": 4757.142857143037, "dir": 0 }, "geometry": { "type": "LineString", "coordinates": [ [ 116.464285714285708, 39.88 ], [ 116.421428571428564, 39.88 ] ] } },
{ "type": "Feature", "properties": { "link_id": 82, "from_node": 41, "to_node": 51, "length": 4757.142857143037, "dir": 0 }, "geometry": { "type": "LineString", "coordinates": [ [ 116.421428571428564, 39.895555555555561 ], [ 116.464285714285708, 39.895555555555561 ] ] } },
{ "type": "Feature", "properties": { "link_id": 83, "from_node": 51, "to_node": 41, "length": 4757.142857143037, "dir": 0 }, "geometry": { "type": "LineString", "coordinates": [ [ 116.464285714285708, 39.895555555555561 ], [ 116.421428571428564, 39.895555555555561 ] ] } },
{ "type": "Feature", "properties": { "link_id": 84, "from_node": 42, "to_node": 52, "length": 4757.142857143037, "dir": 0 }, "geometry": { "type": "LineString", "coordinates": [ [ 116.421428571428564, 39.911111111111111 ], [ 116.464285714285708, 39.911111111111111 ] ] } },
{ "type": "Feature", "properties": { "link_id": 85, "from_node": 52, "to_node": 42, "length": 4757.142857143037, "dir": 0 }, "geometry": { "type": "LineString", "coordinates": [ [ 116.464285714285708, 39.911111111111111 ], [ 116.421428571428564, 39.911111111111111 ] ] } },
{ "type": "Feature", "properties": { "link_id": 86, "from_node": 43, "to_node": 53, "length": 4757.142857143037, "dir": 0 }, "geometry": { "type": "LineString", "coordinates": [ [ 116.421428571428564, 39.926666666666669 ], [ 116.464285714285708, 39.926666666666669 ] ] } },
{ "type": "Feature", "properties": { "link_id": 87, "from_node": 53, "to_node": 43, "length": 4757.142857143037, "dir": 0 }, "geometry": { "type": "LineString", "coordinates": [ [ 116.464285714285708, 39.926666666666669 ], [ 116.421428571428564, 39.926666666666669 ] ] } },
{ "type": "Feature", "properties": { "link_id": 88, "from_node": 44, "to_node": 54, "length": 4757.142857143037, "dir": 0 }, "geometry": { "type": "LineString", "coordinates": [ [ 116.421428571428564, 39.942222222222227 ], [ 116.464285714285708, 39.942222222222227 ] ] } },
{ "type": "Feature", "properties": { "link_id": 89, "from_node": 54, "to_node": 44, "length": 4757.142857143037, "dir": 0 }, "geometry": { "type": "LineString", "coordinates": [ [ 116.464285714285708, 39.942222222222227 ], [ 116.421428571428564, 39.942222222222227 ] ] } },
{ "type": "Feature", "properties": { "link_id": 90, "from_node": 45, "to_node": 55, "length": 4757.142857143037, "dir": 0 }, "geometry": { "type": "LineString", "coordinates": [ [ 116.421428571428564, 39.957777777777778 ], [ 116.464285714285708, 39.957777777777778 ] ] } },
{ "type": "Feature", "properties": { "link_id": 91, "from_node": 55, "to_node": 45, "length": 4757.142857143037, "dir": 0 }, "geometry": { "type": "LineString", "coordinates": [ [ 116.464285714285708, 39.957777777777778 ], [ 116.421428571428564, 39.957777777777778 ] ] } },
{ "type": "Feature", "properties": { "link_id": 92, "from_node": 46, "to_node": 56, "length": 4757.142857143037, "dir": 0 }, "geometry": { "type": "LineString", "coordinates": [ [ 116.421428571428564, 39.973333333333336 ], [ 116.464285714285708, 39.973333333333336 ] ] } },
{ "type": "Feature", "properties": { "link_id": 93, "from_node": 56, "to_node": 46, "length": 4757.142857143037, "dir": 0 }, "geometry": { "type": "LineString", "coordinates": [ [ 116.464285714285708, 39.973333333333336 ], [ 116.421428571428564, 39.973333333333336 ] ] } },
{ "type": "Feature", "properties": { "link_id": 94, "from_node": 47, "to_node": 57, "length": 4757.142857143037, "dir": 0 }, "geometry": { "type": "LineString", "coordinates": [ [ 116.421428571428564, 39.988888888888894 ], [ 116.464285714285708, 39.988888888888894 ] ] } },
{ "type": "Feature", "properties": { "link_id": 95, "from_node": 57, "to_node": 47, "length": 4757.142857143037, "dir": 0 }, "geometry": { "type": "LineString", "coordinates": [ [ 116.464285714285708, 39.988888888888894 ], [ 116.421428571428564, 39.988888888888894 ] ] } },
{ "type": "Feature", "properties": { "link_id": 96, "from_node": 48, "to_node": 58, "length": 4757.142857143037, "dir": 0 }, "geometry": { "type": "LineString", "coordinates": [ [ 116.421428571428564, 40.004444444444445 ], [ 116.464285714285708, 40.004444444444445 ] ] } },
{ "type": "Feature", "properties": { "link_id": 97, "from_node": 58, "to_node": 48, "length": 4757.142857143037, "dir": 0 }, "geometry": { "type": "LineString", "coordinates": [ [ 116.464285714285708, 40.004444444444445 ], [ 116.421428571428564, 40.004444444444445 ] ] } },
{ "type": "Feature", "properties": { "link_id": 98, "from_node": 49, "to_node": 59, "length": 4757.142857143037, "dir": 0 }, "geometry": { "type": "LineString", "coordinates": [ [ 116.421428571428564, 40.02 ], [ 116.464285714285708, 40.02 ] ] } },
{ "type": "Feature", "properties": { "link_id": 99, "from_node": 59, "to_node": 49, "length": 4757.142857143037, "dir": 0 }, "geometry": { "type": "LineString", "coordinates": [ [ 116.464285714285708, 40.02 ], [ 116.421428571428564, 40.02 ] ] } },
{ "type": "Feature", "properties": { "link_id": 100, "from_node": 50, "to_node": 60, "length": 4757.142857143037, "dir": 0 }, "geometry": { "type": "LineString", "coordinates": [ [ 116.464285714285708, 39.88 ], [ 116.507142857142853, 39.88 ] ] } },
{ "type": "Feature", "properties": { "link_id": 101, "from_node": 60, "to_node": 50, "length": 4757.142857143037, "dir": 0 }, "geometry": { "type": "LineString", "coordinates": [ [ 116.507142857142853, 39.88 ], [ 116.464285714285708, 39.88 ] ] } },
{ "type": "Feature", "properties": { "link_id": 102, "from_node": 51, "to_node": 61, "length": 4757.142857143037, "dir": 0 }, "geometry": { "type": "LineString", "coordinates": [ [ 116.464285714285708, 39.895555555555561 ], [ 116.507142857142853, 39.895555555555561 ] ] } },
{ "type": "Feature", "properties": { "link_id": 103, "from_node": 61, "to_node": 51, "length": 4757.142857143037, "dir": 0 }, "geometry": { "type": "LineString", "coordinates": [ [ 116.507142857142853, 39.895555555555561 ], [ 116.464285714285708, 39.895555555555561 ] ] } },
{ "type": "Feature", "properties": { "link_id": 104, "from_node": 52, "to_node": 62, "length": 4757.142857143037, "dir": 0 }, "geometry": { "type": "LineString", "coordinates": [ [ 116.464285714285708, 39.911111111111111 ], [ 116.507142857142853, 39.911111111111111 ] ] } },
{ "type": "Feature", "properties": { "link_id": 105, "from_node": 62, "to_node": 52, "length": 4757.142857143037, "dir": 0 }, "geometry": { "type": "LineString", "coordinates": [ [ 116.507142857142853, 39.911111111111111 ], [ 116.464285714285708, 39.911111111111111 ] ] } },
{ "type": "Feature", "properties": { "link_id": 106, "from_node": 53, "to_node": 63, "length": 4757.142857143037, "dir": 0 }, "geometry": { "type": "LineString", "coordinates": [ [ 116.464285714285708, 39.926666666666669 ], [ 116.507142857142853, 39.926666666666669 ] ] } },
{ "type": "Feature", "properties": { "link_id": 107, "from_node": 63, "to_node": 53, "length": 4757.142857143037, "dir": 0 }, "geometry": { "type": "LineString", "coordinates": [ [ 116.507142857142853, 39.926666666666669 ], [ 116.464285714285708, 39.926666666666669 ] ] } },
{ "type": "Feature", "properties": { "link_id": 108, "from_node": 54, "to_node": 64, "length": 4757.142857143037, "dir": 0 }, "geometry": { "type": "LineString", "coordinates": [ [ 116.464285714285708, 39.942222222222227 ], [ 116.507142857142853, 39.942222222222227 ] ] } },
{ "type": "Feature", "properties": { "link_id": 109, "from_node": 64, "to_node": 54, "length": 4757.142857143037, "dir": 0 }, "geometry": { "type": "LineString", "coordinates": [ [ 116.507142857142853, 39.942222222222227 ], [ 116.464285714285708, 39.942222222222227 ] ] } },
{ "type": "Feature", "properties": { "link_id": 110, "from_node": 55, "to_node": 65, "length": 4757.142857143037, "dir": 0 }, "geometry": { "type": "LineString", "coordinates": [ [ 116.464285714285708, 39.957777777777778 ], [ 116.507142857142853, 39.957777777777778 ] ] } },
{ "type": "Feature", "properties": { "link_id": 111, "from_node": 65, "to_node": 55, "length": 4757.142857143037, "dir": 0 }, "geometry": { "type": "LineString", "coordinates": [ [ 116.507142857142853, 39.957777777777778 ], [ 116.464285714285708, 39.957777777777778 ] ] } },
{ "type": "Feature", "properties": { "link_id": 112, "from_node": 56, "to_node": 66, "length": 4757.142857143037, "dir": 0 }, "geometry": { "type": "LineString", "coordinates": [ [ 116.464285714285708, 39.973333333333336 ], [ 116.507142857142853, 39.973333333333336 ] ] } },
{ "type": "Feature", "properties": { "link_id": 113, "from_node": 66, "to_node": 56, "length": 4757.142857143037, "dir": 0 }, "geometry": { "type": "LineString", "coordinates": [ [ 116.507142857142853, 39.973333333333336 ], [ 116.464285714285708, 39.973333333333336 ] ] } },
{ "type": "Feature", "properties": { "link_id": 114, "from_node": 57, "to_node": 67, "length": 4757.142857143037, "dir": 0 }, "geometry": { "type": "LineString", "coordinates": [ [ 116.464285714285708, 39.988888888888894 ], [ 116.507142857142853, 39.988888888888894 ] ] } },
{ "type": "Feature", "properties": { "link_id": 115, "from_node": 67, "to_node": 57, "length": 4757.142857143037, "dir": 0 }, "geometry": { "type": "LineString", "coordinates": [ [ 116.507142857142853, 39.988888888888894 ], [ 116.464285714285708, 39.988888888888894 ] ] } },
{ "type": "Feature", "properties": { "link_id": 116, "from_node": 58, "to_node": 68, "length": 4757.142857143037, "dir": 0 }, "geometry": { "type": "LineString", "coordinates": [ [ 116.464285714285708, 40.004444444444445 ], [ 116.507142857142853, 40.004444444444445 ] ] } },
{ "type": "Feature", "properties": { "link_id": 117, "from_node": 68, "to_node": 58, "length": 4757.142857143037, "dir": 0 }, "geometry": { "type": "LineString", "coordinates": [ [ 116.507142857142853, 40.004444444444445 ], [ 116.464285714285708, 40.004444444444445 ] ] } },
{ "type": "Feature", "properties": { "link_id": 118, "from_node": 59, "to_node": 69, "length": 4757.142857143037, "dir": 0 }, "geometry": { "type": "LineString", "coordinates": [ [ 116.464285714285708, 40.02 ], [ 116.507142857142853, 40.02 ] ] } },
{ "type": "Feature", "properties": { "link_id": 119, "from_node": 69, "to_node": 59, "length": 4757.142857143037, "dir": 0 }, "geometry": { "type": "LineString", "coordinates": [ [ 116.507142857142853, 40.02 ], [ 116.464285714285708, 40.02 ] ] } },
{ "type": "Feature", "properties": { "link_id": 120, "from_node": 60, "to_node": 70, "length": 4757.142857143037, "dir": 0 }, "geometry": { "type": "LineString", "coordinates": [ [ 116.507142857142853, 39.88 ], [ 116.55, 39.88 ] ] } },
{ "type": "Feature", "properties": { "link_id": 121, "from_node": 70, "to_node": 60, "length": 4757.142857143037, "dir": 0 }, "geometry": { "type": "LineString", "coordinates": [ [ 116.55, 39.88 ], [ 116.507142857142853, 39.88 ] ] } },
{ "type": "Feature", "properties": { "link_id": 122, "from_node": 61, "to_node": 71, "length": 4757.142857143037, "dir": 0 }, "geometry": { "type": "LineString", "coordinates": [ [ 116.507142857142853, 39.895555555555561 ], [ 116.55, 39.895555555555561 ] ] } },
{ "type": "Feature", "properties": { "link_id": 123, "from_node": 71, "to_node": 61, "length": 4757.142857143037, "dir": 0 }, "geometry": { "type": "LineString", "coordinates": [ [ 116.55, 39.895555555555561 ], [ 116.507142857142853, 39.895555555555561 ] ] } },
{ "type": "Feature", "properties": { "link_id": 124, "from_node": 62, "to_node": 72, "length": 4757.142857143037, "dir": 0 }, "geometry": { "type": "LineString", "coordinates": [ [ 116.507142857142853, 39.911111111111111 ], [ 116.55, 39.911111111111111 ] ] } },
{ "type": "Feature", "properties": { "link_id": 125, "from_node": 72, "to_node": 62, "length": 4757.142857143037, "dir": 0 }, "geometry": { "type": "LineString", "coordinates": [ [ 116.55, 39.911111111111111 ], [ 116.507142857142853, 39.911111111111111 ] ] } },
{ "type": "Feature", "properties": { "link_id": 126, "from_node": 63, "to_node": 73, "length": 4757.142857143037, "dir": 0 }, "geometry": { "type": "LineString", "coordinates": [ [ 116.507142857142853, 39.926666666666669 ], [ 116.55, 39.926666666666669 ] ] } },
{ "type": "Feature", "properties": { "link_id": 127, "from_node": 73, "to_node": 63, "length": 4757.142857143037, "dir": 0 }, "geometry": { "type": "LineString", "coordinates": [ [ 116.55, 39.926666666666669 ], [ 116.507142857142853, 39.926666666666669 ] ] } },
{ "type": "Feature", "properties": { "link_id": 128, "from_node": 64, "to_node": 74, "length": 4757.142857143037, "dir": 0 }, "geometry": { "type": "LineString", "coordinates": [ [ 116.507142857142853, 39.942222222222227 ], [ 116.55, 39.942222222222227 ] ] } },
{ "type": "Feature", "properties": { "link_id": 129, "from_node": 74, "to_node": 64, "length": 4757.142857143037, "dir": 0 }, "geometry": { "type": "LineString", "coordinates": [ [ 116.55, 39.942222222222227 ], [ 116.507142857142853, 39.942222222222227 ] ] } },
{ "type": "Feature", "properties": { "link_id": 130, "from_node": 65, "to_node": 75, "length": 4757.142857143037, "dir": 0 }, "geometry": { "type": "LineString", "coordinates": [ [ 116.507142857142853, 39.957777777777778 ], [ 116.55, 39.957777777777778 ] ] } },
{ "type": "Feature", "properties": { "link_id": 131, "from_node": 75, "to_node": 65, "length": 4757.142857143037, "dir": 0 }, "geometry": { "type": "LineString", "coordinates": [ [ 116.55, 39.957777777777778 ], [ 116.507142857142853, 39.957777777777778 ] ] } },
{ "type": "Feature", "properties": { "link_id": 132, "from_node": 66, "to_node": 76, "length": 4757.142857143037, "dir": 0 }, "geometry": { "type": "LineString", "coordinates": [ [ 116.507142857142853, 39.973333333333336 ], [ 116.55, 39.973333333333336 ] ] } },
{ "type": "Feature", "properties": { "link_id": 133, "from_node": 76, "to_node": 66, "length": 4757.142857143037, "dir": 0 }, "geometry": { "type": "LineString", "coordinates": [ [ 116.55, 39.973333333333336 ], [ 116.507142857142853, 39.973333333333336 ] ] } },
{ "type": "Feature", "properties": { "link_id": 134, "from_node": 67, "to_node": 77, "length": 4757.142857143037, "dir": 0 }, "geometry": { "type": "LineString", "coordinates": [ [ 116.507142857142853, 39.988888888888894 ], [ 116.55, 39.988888888888894 ] ] } },
{ "type": "Feature", "properties": { "link_id": 135, "from_node": 77, "to_node": 67, "length": 4757.142857143037, "dir": 0 }, "geometry": { "type": "LineString", "coordinates": [ [ 116.55, 39.988888888888894 ], [ 116.507142857142853, 39.988888888888894 ] ] } },
{ "type": "Feature", "properties": { "link_id": 136, "from_node": 68, "to_node": 78, "length": 4757.142857143037, "dir": 0 }, "geometry": { "type": "LineString", "coordinates": [ [ 116.507142857142853, 40.004444444444445 ], [ 116.55, 40.004444444444445 ] ] } },
{ "type": "Feature", "properties": { "link_id": 137, "from_node": 78, "to_node": 68, "length": 4757.142857143037, "dir": 0 }, "geometry": { "type": "LineString", "coordinates": [ [ 116.55, 40.004444444444445 ], [ 116.507142857142853, 40.004444444444445 ] ] } },
{ "type": "Feature", "properties": { "link_id": 138, "from_node": 69, "to_node": 79, "length": 4757.142857143037, "dir": 0 }, "geometry": { "type": "LineString", "coordinates": [ [ 116.507142857142853, 40.02 ], [ 116.55, 40.02 ] ] } },
{ "type": "Feature", "properties": { "link_id": 139, "from_node": 79, "to_node": 69, "length": 4757.142857143037, "dir": 0 }, "geometry": { "type": "LineString", "coordinates": [ [ 116.55, 40.02 ], [ 116.507142857142853, 40.02 ] ] } },
{ "type": "Feature", "properties": { "link_id": 140, "from_node": 0, "to_node": 1, "length": 1726.6666666669366, "dir": 0 }, "geometry": { "type": "LineString", "coordinates": [ [ 116.25, 39.88 ], [ 116.25, 39.895555555555561 ] ] } },
{ "type": "Feature", "properties": { "link_id": 141, "from_node": 1, "to_node": 0, "length": 1726.6666666669366, "dir": 0 }, "geometry": { "type": "LineString", "coordinates": [ [ 116.25, 39.895555555555561 ], [ 116.25, 39.88 ] ] } },
{ "type": "Feature", "properties": { "link_id": 142, "from_node": 1, "to_node": 2, "length": 1726.6666666661479, "dir": 0 }, "geometry": { "type": "LineString", "coordinates": [ [ 116.25, 39.895555555555561 ], [ 116.25, 39.911111111111111 ] ] } },
{ "type": "Feature", "properties": { "link_id": 143, "from_node": 2, "to_node": 1, "length": 1726.6666666661479, "dir": 0 }, "geometry": { "type": "LineString", "coordinates": [ [ 116.25, 39.911111111111111 ], [ 116.25, 39.895555555555561 ] ] } },
{ "type": "Feature", "properties": { "link_id": 144, "from_node": 2, "to_node": 3, "length": 1726.6666666669366, "dir": 0 }, "geometry": { "type": "LineString", "coordinates": [ [ 116.25, 39.911111111111111 ], [ 116.25, 39.926666666666669 ] ] } },
{ "type": "Feature", "properties": { "link_id": 145, "from_node": 3, "to_node": 2, "length": 1726.6666666669366, "dir": 0 }, "geometry": { "type": "LineString", "coordinates": [ [ 116.25, 39.926666666666669 ], [ 116.25, 39.911111111111111 ] ] } },
{ "type": "Feature", "properties": { "link_id": 146, "from_node": 3, "to_node": 4, "length": 1726.6666666669366, "dir": 0 }, "geometry": { "type": "LineString", "coordinates": [ [ 116.25, 39.926666666666669 ], [ 116.25, 39.942222222222227 ] ] } },
{ "type": "Feature", "properties": { "link_id": 147, "from_node": 4, "to_node": 3, "length": 1726.6666666669366, "dir": 0 }, "geometry": { "type": "LineString", "coordinates": [ [ 116.25, 39.942222222222227 ], [ 116.25, 39.926666666666669 ] ] } },
{ "type": "Feature", "properties": { "link_id": 148, "from_node": 4, "to_node": 5, "length": 1726.6666666661479, "dir": 0 }, "geometry": { "type": "LineString", "coordinates": [ [ 116.25, 39.942222222222227 ], [ 116.25, 39.957777777777778 ] ] } },
{ "type": "Feature", "properties": { "link_id": 149, "from_node": 5, "to_node": 4, "length": 1726.6666666661479, "dir": 0 }, "geometry": { "type": "LineString", "coordinates": [ [ 116.25, 39.957777777777778 ], [ 116.25, 39.942222222222227 ] ] } },
{ "type": "Feature", "properties": { "link_id": 150, "from_node": 5, "to_node": 6, "length": 1726.6666666669366, "dir": 0 }, "geometry": { "type": "LineString", "coordinates": [ [ 116.25, 39.957777777777778 ], [ 116.25, 39.973333333333336 ] ] } },
{ "type": "Feature", "properties": { "link_id": 151, "from_node": 6, "to_node": 5, "length": 1726.6666666669366, "dir": 0 }, "geometry": { "type": "LineString", "coordinates": [ [ 116.25, 39.973333333333336 ], [ 116.25, 39.957777777777778 ] ] } },
{ "type": "Feature", "properties": { "link_id": 152, "from_node": 6, "to_node": 7, "length": 1726.6666666669366, "dir": 0 }, "geometry": { "type": "LineString", "coordinates": [ [ 116.25, 39.973333333333336 ], [ 116.25, 39.988888888888894 ] ] } },
{ "type": "Feature", "properties": { "link_id": 153, "from_node": 7, "to_node": 6, "length": 1726.6666666669366, "dir": 0 }, "geometry": { "type": "LineString", "coordinates": [ [ 116.25, 39.988888888888894 ], [ 116.25, 39.973333333333336 ] ] } },
{ "type": "Feature", "properties": { "link_id": 154, "from_node": 7, "to_node": 8, "length": 1726.6666666661479, "dir": 0 }, "geometry": { "type": "LineString", "coordinates": [ [ 116.25, 39.988888888888894 ], [ 116.25, 40.004444444444445 ] ] } },
{ "type": "Feature", "properties": { "link_id": 155, "from_node": 8, "to_node": 7, "length": 1726.6666666661479, "dir": 0 }, "geometry": { "type": "LineString", "coordinates": [ [ 116.25, 40.004444444444445 ], [ 116.25, 39.988888888888894 ] ] } },
{ "type": "Feature", "properties": { "link_id": 156, "from_node": 8, "to_node": 9, "length": 1726.6666666669366, "dir": 0 }, "geometry": { "type": "LineString", "coordinates": [ [ 116.25, 40.004444444444445 ], [ 116.25, 40.02 ] ] } },
{ "type": "Feature", "properties": { "link_id": 157, "from_node": 9, "to_node": 8, "length": 1726.6666666669366, "dir": 0 }, "geometry": { "type": "LineString", "coordinates": [ [ 116.25, 40.02 ], [ 116.25, 40.004444444444445 ] ] } },
{ "type": "Feature", "properties": { "link_id": 158, "from_node": 10, "to_node": 11, "length": 1726.6666666669366, "dir": 0 }, "geometry": { "type": "LineString", "coordinates": [ [ 116.292857142857144, 39.88 ], [ 116.292857142857144, 39.895555555555561 ] ] } },
{ "type": "Feature", "properties": { "link_id": 159, "from_node": 11, "to_node": 10, "length": 1726.6666666669366, "dir": 0 }, "geometry": { "type": "LineString", "coordinates": [ [ 116.292857142857144, 39.895555555555561 ], [ 116.292857142857144, 39.88 ] ] } },
{ "type": "Feature", "properties": { "link_id": 160, "from_node": 11, "to_node": 12, "length": 1726.6666666661479, "dir": 0 }, "geometry": { "type": "LineString", "coordinates": [ [ 116.292857142857144, 39.895555555555561 ], [ 116.292857142857144, 39.911111111111111 ] ] } },
{ "type": "Feature", "properties": { "link_id": 161, "from_node": 12, "to_node": 11, "length": 1726.6666666661479, "dir": 0 }, "geometry": { "type": "LineString", "coordinates": [ [ 116.292857142857144, 39.911111111111111 ], [ 116.292857142857144, 39.895555555555561 ] ] } },
{ "type": "Feature", "properties": { "link_id": 162, "from_node": 12, "to_node": 13, "length": 1726.6666666669366, "dir": 0 }, "geometry": { "type": "LineString", "coordinates": [ [ 116.292857142857144, 39.911111111111111 ], [ 116.292857142857144, 39.926666666666669 ] ] } },
{ "type": "Feature", "properties": { "link_id": 163, "from_node": 13, "to_node": 12, "length": 1726.6666666669366, "dir": 0 }, "geometry": { "type": "LineString", "coordinates": [ [ 116.292857142857144, 39.926666666666669 ], [ 116.292857142857144, 39.911111111111111 ] ] } },
{ "type": "Feature", "properties": { "link_id": 164, "from_node": 13, "to_node": 14, "length": 1726.6666666669366, "dir": 0 }, "geometry": { "type": "LineString", "coordinates": [ [ 116.292857142857144, 39.926666666666669 ], [ 116.292857142857144, 39.942222222222227 ] ] } },
{ "type": "Feature", "properties": { "link_id": 165, "from_node": 14, "to_node": 13, "length": 1726.6666666669366, "dir": 0 }, "geometry": { "type": "LineString", "coordinates": [ [ 116.292857142857144, 39.942222222222227 ], [ 116.292857142857144, 39.926666666666669 ] ] } },
{ "type": "Feature", "properties": { "link_id": 166, "from_node": 14, "to_node": 15, "length": 1726.6666666661479, "dir": 0 }, "geometry": { "type": "LineString", "coordinates": [ [ 116.292857142857144, 39.942222222222227 ], [ 116.292857142857144, 39.957777777777778 ] ] } },
{ "type": "Feature", "properties": { "link_id": 167, "from_node": 15, "to_node": 14, "length": 1726.6666666661479, "dir": 0 }, "geometry": { "type": "LineString", "coordinates": [ [ 116.292857142857144, 39.957777777777778 ], [ 116.292857142857144, 39.942222222222227 ] ] } },
{ "type": "Feature", "properties": { "link_id": 168, "from_node": 15, "to_node": 16, "length": 1726.6666666669366, "dir": 0 }, "geometry": { "type": "LineString", "coordinates": [ [ 116.292857142857144, 39.957777777777778 ], [ 116.292857142857144, 39.973333333333336 ] ] } },
{ "type": "Feature", "properties": { "link_id": 169, "from_node": 16, "to_node": 15, "length": 1726.6666666669366, "dir": 0 }, "geometry": { "type": "LineString", "coordinates": [ [ 116.292857142857144, 39.973333333333336 ], [ 116.292857142857144, 39.957777777777778 ] ] } },
{ "type": "Feature", "properties": { "link_id": 170, "from_node": 16, "to_node": 17, "length": 1726.6666666669366, "dir": 0 }, "geometry": { "type": "LineString", "coordinates": [ [ 116.292857142857144, 39.973333333333336 ], [ 116.292857142857144, 39.988888888888894 ] ] } },
{ "type": "Feature", "properties": { "link_id": 171, "from_node": 17, "to_node": 16, "length": 1726.6666666669366, "dir": 0 }, "geometry": { "type": "LineString", "coordinates": [ [ 116.292857142857144, 39.988888888888894 ], [ 116.292857142857144, 39.973333333333336 ] ] } },
{ "type": "Feature", "properties": { "link_id": 172, "from_node": 17, "to_node": 18, "length": 1726.6666666661479, "dir": 0 }, "geometry": { "type": "LineString", "coordinates": [ [ 116.292857142857144, 39.988888888888894 ], [ 116.292857142857144, 40.004444444444445 ] ] } },
{ "type": "Feature", "properties": { "link_id": 173, "from_node": 18, "to_node": 17, "length": 1726.6666666661479, "dir": 0 }, "geometry": { "type": "LineString", "coordinates": [ [ 116.292857142857144, 40.004444444444445 ], [ 116.292857142857144, 39.988888888888894 ] ] } },
{ "type": "Feature", "properties": { "link_id": 174, "from_node": 18, "to_node": 19, "length": 1726.6666666669366, "dir": 0 }, "geometry": { "type": "LineString", "coordinates": [ [ 116.292857142857144, 40.004444444444445 ], [ 116.292857142857144, 40.02 ] ] } },
{ "type": "Feature", "properties": { "link_id": 175, "from_node": 19, "to_node": 18, "length": 1726.6666666669366, "dir": 0 }, "geometry": { "type": "LineString", "coordinates": [ [ 116.292857142857144, 40.02 ], [ 116.292857142857144, 40.004444444444445 ] ] } },
{ "type": "Feature", "properties": { "link_id": 176, "from_node": 20, "to_node": 21, "length": 1726.6666666669366, "dir": 0 }, "geometry": { "type": "LineString", "coordinates": [ [ 116.335714285714289, 39.88 ], [ 116.335714285714289, 39.895555555555561 ] ] } },
{ "type": "Feature", "properties": { "link_id": 177, "from_node": 21, "to_node": 20, "length": 1726.6666666669366, "dir": 0 }, "geometry": { "type": "LineString", "coordinates": [ [ 116.335714285714289, 39.895555555555561 ], [ 116.335714285714289, 39.88 ] ] } },
{ "type": "Feature", "properties": { "link_id": 178, "from_node": 21, "to_node": 22, "length": 1726.6666666661479, "dir": 0 }, "geometry": { "type": "LineString", "coordinates": [ [ 116.335714285714289, 39.895555555555561 ], [ 116.335714285714289, 39.911111111111111 ] ] } },
{ "type": "Feature", "properties": { "link_id": 179, "from_node": 22, "to_node": 21, "length": 1726.6666666661479, "dir": 0 }, "geometry": { "type": "LineString", "coordinates": [ [ 116.335714285714289, 39.911111111111111 ], [ 116.335714285714289, 39.895555555555561 ] ] } },
{ "type": "Feature", "properties": { "link_id": 180, "from_node": 22, "to_node": 23, "length": 1726.6666666669366, "dir": 0 }, "geometry": { "type": "LineString", "coordinates": [ [ 116.335714285714289, 39.911111111111111 ], [ 116.335714285714289, 39.926666666666669 ] ] } },
{ "type": "Feature", "properties": { "link_id": 181, "from_node": 23, "to_node": 22, "length": 1726.6666666669366, "dir": 0 }, "geometry": { "type": "LineString", "coordinates": [ [ 116.335714285714289, 39.926666666666669 ], [ 116.335714285714289, 39.911111111111111 ] ] } },
{ "type": "Feature", "properties": { "link_id": 182, "from_node": 23, "to_node": 24, "length": 1726.6666666669366, "dir": 0 }, "geometry": { "type": "LineString", "coordinates": [ [ 116.335714285714289, 39.926666666666669 ], [ 116.335714285714289, 39.942222222222227 ] ] } },
{ "type": "Feature", "properties": { "link_id": 183, "from_node": 24, "to_node": 23, "length": 1726.6666666669366, "dir": 0 }, "geometry": { "type": "LineString", "coordinates": [ [ 116.335714285714289, 39.942222222222227 ], [ 116.335714285714289, 39.926666666666669 ] ] } },
{ "type": "Feature", "properties": { "link_id": 184, "from_node": 24, "to_node": 25, "length": 1726.6666666661479, "dir": 0 }, "geometry": { "type": "LineString", "coordinates": [ [ 116.335714285714289, 39.942222222222227 ], [ 116.335714285714289, 39.957777777777778 ] ] } },
{ "type": "Feature", "properties": { "link_id": 185, "from_node": 25, "to_node": 24, "length": 1726.6666666661479, "dir": 0 }, "geometry": { "type": "LineString", "coordinates": [ [ 116.335714285714289, 39.957777777777778 ], [ 116.335714285714289, 39.942222222222227 ] ] } },
{ "type": "Feature", "properties": { "link_id": 186, "from_node": 25, "to_node": 26, "length": 1726.6666666669366, "dir": 0 }, "geometry": { "type": "LineString", "coordinates": [ [ 116.335714285714289, 39.957777777777778 ], [ 116.335714285714289, 39.973333333333336 ] ] } },
{ "type": "Feature", "properties": { "link_id": 187, "from_node": 26, "to_node": 25, "length": 1726.6666666669366, "dir": 0 }, "geometry": { "type": "LineString", "coordinates": [ [ 116.335714285714289, 39.973333333333336 ], [ 116.335714285714289, 39.957777777777778 ] ] } },
{ "type": "Feature", "properties": { "link_id": 188, "from_node": 26, "to_node": 27, "length": 1726.6666666669366, "dir": 0 }, "geometry": { "type": "LineString", "coordinates": [ [ 116.335714285714289, 39.973333333333336 ], [ 116.335714285714289, 39.988888888888894 ] ] } },
{ "type": "Feature", "properties": { "link_id": 189, "from_node": 27, "to_node": 26, "length": 1726.6666666669366, "dir": 0 }, "geometry": { "type": "LineString", "coordinates": [ [ 116.335714285714289, 39.988888888888894 ], [ 116.335714285714289, 39.973333333333336 ] ] } },
{ "type": "Feature", "properties": { "link_id": 190, "from_node": 27, "to_node": 28, "length": 1726.6666666661479, "dir": 0 }, "geometry": { "type": "LineString", "coordinates": [ [ 116.335714285714289, 39.988888888888894 ], [ 116.335714285714289, 40.004444444444445 ] ] } },
{ "type": "Feature", "properties": { "link_id": 191, "from_node": 28, "to_node": 27, "length": 1726.6666666661479, "dir": 0 }, "geometry": { "type": "LineString", "coordinates": [ [ 116.335714285714289, 40.004444444444445 ], [ 116.335714285714289, 39.988888888888894 ] ] } },
{ "type": "Feature", "properties": { "link_id": 192, "from_node": 28, "to_node": 29, "length": 1726.6666666669366, "dir": 0 }, "geometry": { "type": "LineString", "coordinates": [ [ 116.335714285714289, 40.004444444444445 ], [ 116.335714285714289, 40.02 ] ] } },
{ "type": "Feature", "properties": { "link_id": 193, "from_node": 29, "to_node": 28, "length": 1726.6666666669366, "dir": 0 }, "geometry": { "type": "LineString", "coordinates": [ [ 116.335714285714289, 40.02 ], [ 116.335714285714289, 40.004444444444445 ] ] } },
{ "type": "Feature", "properties": { "link_id": 194, "from_node": 30, "to_node": 31, "length": 1726.6666666669366, "dir": 0 }, "geometry": { "type": "LineString", "coordinates": [ [ 116.378571428571433, 39.88 ], [ 116.378571428571433, 39.895555555555561 ] ] } },
{ "type": "Feature", "properties": { "link_id": 195, "from_node": 31, "to_node": 30, "length": 1726.6666666669366, "dir": 0 }, "geometry": { "type": "LineString", "coordinates": [ [ 116.378571428571433, 39.895555555555561 ], [ 116.378571428571433, 39.88 ] ] } },
{ "type": "Feature", "properties": { "link_id": 196, "from_node": 31, "to_node": 32, "length": 1726.6666666661479, "dir": 0 }, "geometry": { "type": "LineString", "coordinates": [ [ 116.378571428571433, 39.895555555555561 ], [ 116.378571428571433, 39.911111111111111 ] ] } },
{ "type": "Feature", "properties": { "link_id": 197, "from_node": 32, "to_node": 31, "length": 1726.6666666661479, "dir": 0 }, "geometry": { "type": "LineString", "coordinates": [ [ 116.378571428571433, 39.911111111111111 ], [ 116.378571428571433, 39.895555555555561 ] ] } },
{ "type": "Feature", "properties": { "link_id": 198, "from_node": 32, "to_node": 33, "length": 1726.6666666669366, "dir": 0 }, "geometry": { "type": "LineString", "coordinates": [ [ 116.378571428571433, 39.911111111111111 ], [ 116.378571428571433, 39.926666666666669 ] ] } },
{ "type": "Feature", "properties": { "link_id": 199, "from_node": 33, "to_node": 32, "length": 1726.6666666669366, "dir": 0 }, "geometry": { "type": "LineString", "coordinates": [ [ 116.378571428571433, 39.926666666666669 ], [ 116.378571428571433, 39.911111111111111 ] ] } },
{ "type": "Feature", "properties": { "link_id": 200, "from_node": 33, "to_node": 34, "length": 1726.6666666669366, "dir": 0 }, "geometry": { "type": "LineString", "coordinates": [ [ 116.378571428571433, 39.926666666666669 ], [ 116.378571428571433, 39.942222222222227 ] ] } },
{ "type": "Feature", "properties": { "link_id": 201, "from_node": 34, "to_node": 33, "length": 1726.6666666669366, "dir": 0 }, "geometry": { "type": "LineString", "coordinates": [ [ 116.378571428571433, 39.942222222222227 ], [ 116.378571428571433, 39.926666666666669 ] ] } },
{ "type": "Feature", "properties": { "link_id": 202, "from_node": 34, "to_node": 35, "length": 1726.6666666661479, "dir": 0 }, "geometry": { "type": "LineString", "coordinates": [ [ 116.378571428571433, 39.942222222222227 ], [ 116.378571428571433, 39.957777777777778 ] ] } },
{ "type": "Feature", "properties": { "link_id": 203, "from_node": 35, "to_node": 34, "length": 1726.6666666661479, "dir": 0 }, "geometry": { "type": "LineString", "coordinates": [ [ 116.378571428571433, 39.957777777777778 ], [ 116.378571428571433, 39.942222222222227 ] ] } },
{ "type": "Feature", "properties": { "link_id": 204, "from_node": 35, "to_node": 36, "length": 1726.6666666669366, "dir": 0 }, "geometry": { "type": "LineString", "coordinates": [ [ 116.378571428571433, 39.957777777777778 ], [ 116.378571428571433, 39.973333333333336 ] ] } },
{ "type": "Feature", "properties": { "link_id": 205, "from_node": 36, "to_node": 35, "length": 1726.6666666669366, "dir": 0 }, "geometry": { "type": "LineString", "coordinates": [ [ 116.378571428571433, 39.973333333333336 ], [ 116.378571428571433, 39.957777777777778 ] ] } },
{ "type": "Feature", "properties": { "link_id": 206, "from_node": 36, "to_node": 37, "length": 1726.6666666669366, "dir": 0 }, "geometry": { "type": "LineString", "coordinates": [ [ 116.378571428571433, 39.973333333333336 ], [ 116.378571428571433, 39.988888888888894 ] ] } },
{ "type": "Feature", "properties": { "link_id": 207, "from_node": 37, "to_node": 36, "length": 1726.6666666669366, "dir": 0 }, "geometry": { "type": "LineString", "coordinates": [ [ 116.378571428571433, 39.988888888888894 ], [ 116.378571428571433, 39.973333333333336 ] ] } },
{ "type": "Feature", "properties": { "link_id": 208, "from_node": 37, "to_node": 38, "length": 1726.6666666661479, "dir": 0 }, "geometry": { "type": "LineString", "coordinates": [ [ 116.378571428571433, 39.988888888888894 ], [ 116.378571428571433, 40.004444444444445 ] ] } },
{ "type": "Feature", "properties": { "link_id": 209, "from_node": 38, "to_node": 37, "length": 1726.6666666661479, "dir": 0 }, "geometry": { "type": "LineString", "coordinates": [ [ 116.378571428571433, 40.004444444444445 ], [ 116.378571428571433, 39.988888888888894 ] ] } },
{ "type": "Feature", "properties": { "link_id": 210, "from_node": 38, "to_node": 39, "length": 1726.6666666669366, "dir": 0 }, "geometry": { "type": "LineString", "coordinates": [ [ 116.378571428571433, 40.004444444444445 ], [ 116.378571428571433, 40.02 ] ] } },
{ "type": "Feature", "properties": { "link_id": 211, "from_node": 39, "to_node": 38, "length": 1726.6666666669366, "dir": 0 }, "geometry": { "type": "LineString", "coordinates": [ [ 116.378571428571433, 40.02 ], [ 116.378571428571433, 40.004444444444445 ] ] } },
{ "type": "Feature", "properties": { "link_id": 212, "from_node": 40, "to_node": 41, "length": 1726.6666666669366, "dir": 0 }, "geometry": { "type": "LineString", "coordinates": [ [ 116.421428571428564, 39.88 ], [ 116.421428571428564, 39.895555555555561 ] ] } },
{ "type": "Feature", "properties": { "link_id": 213, "from_node": 41, "to_node": 40, "length": 1726.6666666669366, "dir": 0 }, "geometry": { "type": "LineString", "coordinates": [ [ 116.421428571428564, 39.895555555555561 ], [ 116.421428571428564, 39.88 ] ] } },
{ "type": "Feature", "properties": { "link_id": 214, "from_node": 41, "to_node": 42, "length": 1726.6666666661479, "dir": 0 }, "geometry": { "type": "LineString", "coordinates": [ [ 116.421428571428564, 39.895555555555561 ], [ 116.421428571428564, 39.911111111111111 ] ] } },
{ "type": "Feature", "properties": { "link_id": 215, "from_node": 42, "to_node": 41, "length": 1726.6666666661479, "dir": 0 }, "geometry": { "type": "LineString", "coordinates": [ [ 116.421428571428564, 39.911111111111111 ], [ 116.421428571428564, 39.895555555555561 ] ] } },
{ "type": "Feature", "properties": { "link_id": 216, "from_node": 42, "to_node": 43, "length": 1726.6666666669366, "dir": 0 }, "geometry": { "type": "LineString", "coordinates": [ [ 116.421428571428564, 39.911111111111111 ], [ 116.421428571428564, 39.926666666666669 ] ] } },
{ "type": "Feature", "properties": { "link_id": 217, "from_node": 43, "to_node": 42, "length": 1726.6666666669366, "dir": 0 }, "geometry": { "type": "LineString", "coordinates": [ [ 116.421428571428564, 39.926666666666669 ], [ 116.421428571428564, 39.911111111111111 ] ] } },
{ "type": "Feature", "properties": { "link_id": 218, "from_node": 43, "to_node": 44, "length": 1726.6666666669366, "dir": 0 }, "geometry": { "type": "LineString", "coordinates": [ [ 116.421428571428564, 39.926666666666669 ], [ 116.421428571428564, 39.942222222222227 ] ] } },
{ "type": "Feature", "properties": { "link_id": 219, "from_node": 44, "to_node": 43, "length": 1726.6666666669366, "dir": 0 }, "geometry": { "type": "LineString", "coordinates": [ [ 116.421428571428564, 39.942222222222227 ], [ 116.421428571428564, 39.926666666666669 ] ] } },
{ "type": "Feature", "properties": { "link_id": 220, "from_node": 44, "to_node": 45, "length": 1726.6666666661479, "dir": 0 }, "geometry": { "type": "LineString", "coordinates": [ [ 116.421428571428564, 39.942222222222227 ], [ 116.421428571428564, 39.957777777777778 ] ] } },
{ "type": "Feature", "properties": { "link_id": 221, "from_node": 45, "to_node": 44, "length": 1726.6666666661479, "dir": 0 }, "geometry": { "type": "LineString", "coordinates": [ [ 116.421428571428564, 39.957777777777778 ], [ 116.421428571428564, 39.942222222222227 ] ] } },
{ "type": "Feature", "properties": { "link_id": 222, "from_node": 45, "to_node": 46, "length": 1726.6666666669366, "dir": 0 }, "geometry": { "type": "LineString", "coordinates": [ [ 116.421428571428564, 39.957777777777778 ], [ 116.421428571428564, 39.973333333333336 ] ] } },
{ "type": "Feature", "properties": { "link_id": 223, "from_node": 46, "to_node": 45, "length": 1726.6666666669366, "dir": 0 }, "geometry": { "type": "LineString", "coordinates": [ [ 116.421428571428564, 39.973333333333336 ], [ 116.421428571428564, 39.957777777777778 ] ] } },
{ "type": "Feature", "properties": { "link_id": 224, "from_node": 46, "to_node": 47, "length": 1726.6666666669366, "dir": 0 }, "geometry": { "type": "LineString", "coordinates": [ [ 116.421428571428564, 39.973333333333336 ], [ 116.421428571428564, 39.988888888888894 ] ] } },
{ "type": "Feature", "properties": { "link_id": 225, "from_node": 47, "to_node": 46, "length": 1726.6666666669366, "dir": 0 }, "geometry": { "type": "LineString", "coordinates": [ [ 116.421428571428564, 39.988888888888894 ], [ 116.421428571428564, 39.973333333333336 ] ] } },
{ "type": "Feature", "properties": { "link_id": 226, "from_node": 47, "to_node": 48, "length": 1726.6666666661479, "dir": 0 }, "geometry": { "type": "LineString", "coordinates": [ [ 116.421428571428564, 39.988888888888894 ], [ 116.421428571428564, 40.004444444444445 ] ] } },
{ "type": "Feature", "properties": { "link_id": 227, "from_node": 48, "to_node": 47, "length": 1726.6666666661479, "dir": 0 }, "geometry": { "type": "LineString", "coordinates": [ [ 116.421428571428564, 40.004444444444445 ], [ 116.421428571428564, 39.988888888888894 ] ] } },
{ "type": "Feature", "properties": { "link_id": 228, "from_node": 48, "to_node": 49, "length": 1726.6666666669366, "dir": 0 }, "geometry": { "type": "LineString", "coordinates": [ [ 116.421428571428564, 40.004444444444445 ], [ 116.421428571428564, 40.02 ] ] } },
{ "type": "Feature", "properties": { "link_id": 229, "from_node": 49, "to_node": 48, "length": 1726.6666666669366, "dir": 0 }, "geometry": { "type": "LineString", "coordinates": [ [ 116.421428571428564, 40.02 ], [ 116.421428571428564, 40.004444444444445 ] ] } },
{ "type": "Feature", "properties": { "link_id": 230, "from_node": 50, "to_node": 51, "length": 1726.6666666669366, "dir": 0 }, "geometry": { "type": "LineString", "coordinates": [ [ 116.464285714285708, 39.88 ], [ 116.464285714285708, 39.895555555555561 ] ] } },
{ "type": "Feature", "properties": { "link_id": 231, "from_node": 51, "to_node": 50, "length": 1726.6666666669366, "dir": 0 }, "geometry": { "type": "LineString", "coordinates": [ [ 116.464285714285708, 39.895555555555561 ], [ 116.464285714285708, 39.88 ] ] } },
{ "type": "Feature", "properties": { "link_id": 232, "from_node": 51, "to_node": 52, "length": 1726.6666666661479, "dir": 0 }, "geometry": { "type": "LineString", "coordinates": [ [ 116.464285714285708, 39.895555555555561 ], [ 116.464285714285708, 39.911111111111111 ] ] } },
{ "type": "Feature", "properties": { "link_id": 233, "from_node": 52, "to_node": 51, "length": 1726.6666666661479, "dir": 0 }, "geometry": { "type": "LineString", "coordinates": [ [ 116.464285714285708, 39.911111111111111 ], [ 116.464285714285708, 39.895555555555561 ] ] } },
{ "type": "Feature", "properties": { "link_id": 234, "from_node": 52, "to_node": 53, "length": 1726.6666666669366, "dir": 0 }, "geometry": { "type": "LineString", "coordinates": [ [ 116.464285714285708, 39.911111111111111 ], [ 116.464285714285708, 39.926666666666669 ] ] } },
{ "type": "Feature", "properties": { "link_id": 235, "from_node": 53, "to_node": 52, "length": 1726.6666666669366, "dir": 0 }, "geometry": { "type": "LineString", "coordinates": [ [ 116.464285714285708, 39.926666666666669 ], [ 116.464285714285708, 39.911111111111111 ] ] } },
{ "type": "Feature", "properties": { "link_id": 236, "from_node": 53, "to_node": 54, "length": 1726.6666666669366, "dir": 0 }, "geometry": { "type": "LineString", "coordinates": [ [ 116.464285714285708, 39.926666666666669 ], [ 116.464285714285708, 39.942222222222227 ] ] } },
{ "type": "Feature", "properties": { "link_id": 237, "from_node": 54, "to_node": 53, "length": 1726.6666666669366, "dir": 0 }, "geometry": { "type": "LineString", "coordinates": [ [ 116.464285714285708, 39.942222222222227 ], [ 116.464285714285708, 39.926666666666669 ] ] } },
{ "type": "Feature", "properties": { "link_id": 238, "from_node": 54, "to_node": 55, "length": 1726.6666666661479, "dir": 0 }, "geometry": { "type": "LineString", "coordinates": [ [ 116.464285714285708, 39.942222222222227 ], [ 116.464285714285708, 39.957777777777778 ] ] } },
{ "type": "Feature", "properties": { "link_id": 239, "from_node": 55, "to_node": 54, "length": 1726.6666666661479, "dir": 0 }, "geometry": { "type": "LineString", "coordinates": [ [ 116.464285714285708, 39.957777777777778 ], [ 116.464285714285708, 39.942222222222227 ] ] } },
{ "type": "Feature", "properties": { "link_id": 240, "from_node": 55, "to_node": 56, "length": 1726.6666666669366, "dir": 0 }, "geometry": { "type": "LineString", "coordinates": [ [ 116.464285714285708, 39.957777777777778 ], [ 116.464285714285708, 39.973333333333336 ] ] } },
{ "type": "Feature", "properties": { "link_id": 241, "from_node": 56, "to_node": 55, "length": 1726.6666666669366, "dir": 0 }, "geometry": { "type": "LineString", "coordinates": [ [ 116.464285714285708, 39.973333333333336 ], [ 116.464285714285708, 39.957777777777778 ] ] } },
{ "type": "Feature", "properties": { "link_id": 242, "from_node": 56, "to_node": 57, "length": 1726.6666666669366, "dir": 0 }, "geometry": { "type": "LineString", "coordinates": [ [ 116.464285714285708, 39.973333333333336 ], [ 116.464285714285708, 39.988888888888894 ] ] } },
{ "type": "Feature", "properties": { "link_id": 243, "from_node": 57, "to_node": 56, "length": 1726.6666666669366, "dir": 0 }, "geometry": { "type": "LineString", "coordinates": [ [ 116.464285714285708, 39.988888888888894 ], [ 116.464285714285708, 39.973333333333336 ] ] } },
{ "type": "Feature", "properties": { "link_id": 244, "from_node": 57, "to_node": 58, "length": 1726.6666666661479, "dir": 0 }, "geometry": { "type": "LineString", "coordinates": [ [ 116.464285714285708, 39.988888888888894 ], [ 116.464285714285708, 40.004444444444445 ] ] } },
{ "type": "Feature", "properties": { "link_id": 245, "from_node": 58, "to_node": 57, "length": 1726.6666666661479, "dir": 0 }, "geometry": { "type": "LineString", "coordinates": [ [ 116.464285714285708, 40.004444444444445 ], [ 116.464285714285708, 39.988888888888894 ] ] } },
{ "type": "Feature", "properties": { "link_id": 246, "from_node": 58, "to_node": 59, "length": 1726.6666666669366, "dir": 0 }, "geometry": { "type": "LineString", "coordinates": [ [ 116.464285714285708, 40.004444444444445 ], [ 116.464285714285708, 40.02 ] ] } },
{ "type": "Feature", "properties": { "link_id": 247, "from_node": 59, "to_node": 58, "length": 1726.6666666669366, "dir": 0 }, "geometry": { "type": "LineString", "coordinates": [ [ 116.464285714285708, 40.02 ], [ 116.464285714285708, 40.004444444444445 ] ] } },
{ "type": "Feature", "properties": { "link_id": 248, "from_node": 60, "to_node": 61, "length": 1726.6666666669366, "dir": 0 }, "geometry": { "type": "LineString", "coordinates": [ [ 116.507142857142853, 39.88 ], [ 116.507142857142853, 39.895555555555561 ] ] } },
{ "type": "Feature", "properties": { "link_id": 249, "from_node": 61, "to_node": 60, "length": 1726.6666666669366, "dir": 0 }, "geometry": { "type": "LineString", "coordinates": [ [ 116.507142857142853, 39.895555555555561 ], [ 116.507142857142853, 39.88 ] ] } },
{ "type": "Feature", "properties": { "link_id": 250, "from_node": 61, "to_node": 62, "length": 1726.6666666661479, "dir": 0 }, "geometry": { "type": "LineString", "coordinates": [ [ 116.507142857142853, 39.895555555555561 ], [ 116.507142857142853, 39.911111111111111 ] ] } },
{ "type": "Feature", "properties": { "link_id": 251, "from_node": 62, "to_node": 61, "length": 1726.6666666661479, "dir": 0 }, "geometry": { "type": "LineString", "coordinates": [ [ 116.507142857142853, 39.911111111111111 ], [ 116.507142857142853, 39.895555555555561 ] ] } },
{ "type": "Feature", "properties": { "link_id": 252, "from_node": 62, "to_node": 63, "length": 1726.6666666669366, "dir": 0 }, "geometry": { "type": "LineString", "coordinates": [ [ 116.507142857142853, 39.911111111111111 ], [ 116.507142857142853, 39.926666666666669 ] ] } },
{ "type": "Feature", "properties": { "link_id": 253, "from_node": 63, "to_node": 62, "length": 1726.6666666669366, "dir": 0 }, "geometry": { "type": "LineString", "coordinates": [ [ 116.507142857142853, 39.926666666666669 ], [ 116.507142857142853, 39.911111111111111 ] ] } },
{ "type": "Feature", "properties": { "link_id": 254, "from_node": 63, "to_node": 64, "length": 1726.6666666669366, "dir": 0 }, "geometry": { "type": "LineString", "coordinates": [ [ 116.507142857142853, 39.926666666666669 ], [ 116.507142857142853, 39.942222222222227 ] ] } },
{ "type": "Feature", "properties": { "link_id": 255, "from_node": 64, "to_node": 63, "length": 1726.6666666669366, "dir": 0 }, "geometry": { "type": "LineString", "coordinates": [ [ 116.507142857142853, 39.942222222222227 ], [ 116.507142857142853, 39.926666666666669 ] ] } },
{ "type": "Feature", "properties": { "link_id": 256, "from_node": 64, "to_node": 65, "length": 1726.6666666661479, "dir": 0 }, "geometry": { "type": "LineString", "coordinates": [ [ 116.507142857142853, 39.942222222222227 ], [ 116.507142857142853, 39.957777777777778 ] ] } },
{ "type": "Feature", "properties": { "link_id": 257, "from_node": 65, "to_node": 64, "length": 1726.6666666661479, "dir": 0 }, "geometry": { "type": "LineString", "coordinates": [ [ 116.507142857142853, 39.957777777777778 ], [ 116.507142857142853, 39.942222222222227 ] ] } },
{ "type": "Feature", "properties": { "link_id": 258, "from_node": 65, "to_node": 66, "length": 1726.6666666669366, "dir": 0 }, "geometry": { "type": "LineString", "coordinates": [ [ 116.507142857142853, 39.957777777777778 ], [ 116.507142857142853, 39.973333333333336 ] ] } },
{ "type": "Feature", "properties": { "link_id": 259, "from_node": 66, "to_node": 65, "length": 1726.6666666669366, "dir": 0 }, "geometry": { "type": "LineString", "coordinates": [ [ 116.507142857142853, 39.973333333333336 ], [ 116.507142857142853, 39.957777777777778 ] ] } },
{ "type": "Feature", "properties": { "link_id": 260, "from_node": 66, "to_node": 67, "length": 1726.6666666669366, "dir": 0 }, "geometry": { "type": "LineString", "coordinates": [ [ 116.507142857142853, 39.973333333333336 ], [ 116.507142857142853, 39.988888888888894 ] ] } },
{ "type": "Feature", "properties": { "link_id": 261, "from_node": 67, "to_node": 66, "length": 1726.6666666669366, "dir": 0 }, "geometry": { "type": "LineString", "coordinates": [ [ 116.507142857142853, 39.988888888888894 ], [ 116.507142857142853, 39.973333333333336 ] ] } },
{ "type": "Feature", "properties": { "link_id": 262, "from_node": 67, "to_node": 68, "length": 1726.6666666661479, "dir": 0 }, "geometry": { "type": "LineString", "coordinates": [ [ 116.507142857142853, 39.988888888888894 ], [ 116.507142857142853, 40.004444444444445 ] ] } },
{ "type": "Feature", "properties": { "link_id": 263, "from_node": 68, "to_node": 67, "length": 1726.6666666661479, "dir": 0 }, "geometry": { "type": "LineString", "coordinates": [ [ 116.507142857142853, 40.004444444444445 ], [ 116.507142857142853, 39.988888888888894 ] ] } },
{ "type": "Feature", "properties": { "link_id": 264, "from_node": 68, "to_node": 69, "length": 1726.6666666669366, "dir": 0 }, "geometry": { "type": "LineString", "coordinates": [ [ 116.507142857142853, 40.004444444444445 ], [ 116.507142857142853, 40.02 ] ] } },
{ "type": "Feature", "properties": { "link_id": 265, "from_node": 69, "to_node": 68, "length": 1726.6666666669366, "dir": 0 }, "geometry": { "type": "LineString", "coordinates": [ [ 116.507142857142853, 40.02 ], [ 116.507142857142853, 40.004444444444445 ] ] } },
{ "type": "Feature", "properties": { "link_id": 266, "from_node": 70, "to_node": 71, "length": 1726.6666666669366, "dir": 0 }, "geometry": { "type": "LineString", "coordinates": [ [ 116.55, 39.88 ], [ 116.55, 39.895555555555561 ] ] } },
{ "type": "Feature", "properties": { "link_id": 267, "from_node": 71, "to_node": 70, "length": 1726.6666666669366, "dir": 0 }, "geometry": { "type": "LineString", "coordinates": [ [ 116.55, 39.895555555555561 ], [ 116.55, 39.88 ] ] } },
{ "type": "Feature", "properties": { "link_id": 268, "from_node": 71, "to_node": 72, "length": 1726.6666666661479, "dir": 0 }, "geometry": { "type": "LineString", "coordinates": [ [ 116.55, 39.895555555555561 ], [ 116.55, 39.911111111111111 ] ] } },
{ "type": "Feature", "properties": { "link_id": 269, "from_node": 72, "to_node": 71, "length": 1726.6666666661479, "dir": 0 }, "geometry": { "type": "LineString", "coordinates": [ [ 116.55, 39.911111111111111 ], [ 116.55, 39.895555555555561 ] ] } },
{ "type": "Feature", "properties": { "link_id": 270, "from_node": 72, "to_node": 73, "length": 1726.6666666669366, "dir": 0 }, "geometry": { "type": "LineString", "coordinates": [ [ 116.55, 39.911111111111111 ], [ 116.55, 39.926666666666669 ] ] } },
{ "type": "Feature", "properties": { "link_id": 271, "from_node": 73, "to_node": 72, "length": 1726.6666666669366, "dir": 0 }, "geometry": { "type": "LineString", "coordinates": [ [ 116.55, 39.926666666666669 ], [ 116.55, 39.911111111111111 ] ] } },
{ "type": "Feature", "properties": { "link_id": 272, "from_node": 73, "to_node": 74, "length": 1726.6666666669366, "dir": 0 }, "geometry": { "type": "LineString", "coordinates": [ [ 116.55, 39.926666666666669 ], [ 116.55, 39.942222222222227 ] ] } },
{ "type": "Feature", "properties": { "link_id": 273, "from_node": 74, "to_node": 73, "length": 1726.6666666669366, "dir": 0 }, "geometry": { "type": "LineString", "coordinates": [ [ 116.55, 39.942222222222227 ], [ 116.55, 39.926666666666669 ] ] } },
{ "type": "Feature", "properties": { "link_id": 274, "from_node": 74, "to_node": 75, "length": 1726.6666666661479, "dir": 0 }, "geometry": { "type": "LineString", "coordinates": [ [ 116.55, 39.942222222222227 ], [ 116.55, 39.957777777777778 ] ] } },
{ "type": "Feature", "properties": { "link_id": 275, "from_node": 75, "to_node": 74, "length": 1726.6666666661479, "dir": 0 }, "geometry": { "type": "LineString", "coordinates": [ [ 116.55, 39.957777777777778 ], [ 116.55, 39.942222222222227 ] ] } },
{ "type": "Feature", "properties": { "link_id": 276, "from_node": 75, "to_node": 76, "length": 1726.6666666669366, "dir": 0 }, "geometry": { "type": "LineString", "coordinates": [ [ 116.55, 39.957777777777778 ], [ 116.55, 39.973333333333336 ] ] } },
{ "type": "Feature", "properties": { "link_id": 277, "from_node": 76, "to_node": 75, "length": 1726.6666666669366, "dir": 0 }, "geometry": { "type": "LineString", "coordinates": [ [ 116.55, 39.973333333333336 ], [ 116.55, 39.957777777777778 ] ] } },
{ "type": "Feature", "properties": { "link_id": 278, "from_node": 76, "to_node": 77, "length": 1726.6666666669366, "dir": 0 }, "geometry": { "type": "LineString", "coordinates": [ [ 116.55, 39.973333333333336 ], [ 116.55, 39.988888888888894 ] ] } },
{ "type": "Feature", "properties": { "link_id": 279, "from_node": 77, "to_node": 76, "length": 1726.6666666669366, "dir": 0 }, "geometry": { "type": "LineString", "coordinates": [ [ 116.55, 39.988888888888894 ], [ 116.55, 39.973333333333336 ] ] } },
{ "type": "Feature", "properties": { "link_id": 280, "from_node": 77, "to_node": 78, "length": 1726.6666666661479, "dir": 0 }, "geometry": { "type": "LineString", "coordinates": [ [ 116.55, 39.988888888888894 ], [ 116.55, 40.004444444444445 ] ] } },
{ "type": "Feature", "properties": { "link_id": 281, "from_node": 78, "to_node": 77, "length": 1726.6666666661479, "dir": 0 }, "geometry": { "type": "LineString", "coordinates": [ [ 116.55, 40.004444444444445 ], [ 116.55, 39.988888888888894 ] ] } },
{ "type": "Feature", "properties": { "link_id": 282, "from_node": 78, "to_node": 79, "length": 1726.6666666669366, "dir": 0 }, "geometry": { "type": "LineString", "coordinates": [ [ 116.55, 40.004444444444445 ], [ 116.55, 40.02 ] ] } },
{ "type": "Feature", "properties": { "link_id": 283, "from_node": 79, "to_node": 78, "length": 1726.6666666669366, "dir": 0 }, "geometry": { "type": "LineString", "coordinates": [ [ 116.55, 40.02 ], [ 116.55, 40.004444444444445 ] ] } }
]
}
